[{"OBJECT_NAME":"STARLINK-36690","OBJECT_ID":"2026-036K","EPOCH":"2026-03-06T20:00:00.999360","MEAN_MOTION":15.82032278,"ECCENTRICITY":0.0002052,"INCLINATION":42.9989,"RA_OF_ASC_NODE":267.2199,"ARG_OF_PERICENTER":301.7089,"MEAN_ANOMALY":242.8755,"EPHEMERIS_TYPE":0,"CLASSIFICATION_TYPE":"U","NORAD_CAT_ID":67913,"ELEMENT_SET_NO":999,"REV_AT_EPOCH":318,"BSTAR":-0.00016847,"MEAN_MOTION_DOT":-0.0003589,"MEAN_MOTION_DDOT":0},{"OBJECT_NAME":"STARLINK-36724","OBJECT_ID":"2026-036L","EPOCH":"2026-03-06T20:00:00.999360","MEAN_MOTION":15.82034838,"ECCENTRICITY":0.0001904,"INCLINATION":42.9991,"RA_OF_ASC_NODE":267.1978,"ARG_OF_PERICENTER":289.9849,"MEAN_ANOMALY":263.1487,"EPHEMERIS_TYPE":0,"CLASSIFICATION_TYPE":"U","NORAD_CAT_ID":67914,"ELEMENT_SET_NO":999,"REV_AT_EPOCH":318,"BSTAR":-0.00022633,"MEAN_MOTION_DOT":-0.00047971,"MEAN_MOTION_DDOT":0},{"OBJECT_NAME":"STARLINK-36723","OBJECT_ID":"2026-036M","EPOCH":"2026-03-06T20:00:00.999360","MEAN_MOTION":15.82024514,"ECCENTRICITY":0.0001826,"INCLINATION":42.999,"RA_OF_ASC_NODE":267.2091,"ARG_OF_PERICENTER":289.6942,"MEAN_ANOMALY":259.1671,"EPHEMERIS_TYPE":0,"CLASSIFICATION_TYPE":"U","NORAD_CAT_ID":67915,"ELEMENT_SET_NO":999,"REV_AT_EPOCH":318,"BSTAR":-0.00012922,"MEAN_MOTION_DOT":-0.00027668,"MEAN_MOTION_DDOT":0},{"OBJECT_NAME":"STARLINK-36721","OBJECT_ID":"2026-036N","EPOCH":"2026-03-06T20:00:00.999360","MEAN_MOTION":15.82023258,"ECCENTRICITY":0.0002059,"INCLINATION":42.9988,"RA_OF_ASC_NODE":267.1878,"ARG_OF_PERICENTER":288.6317,"MEAN_ANOMALY":268.7761,"EPHEMERIS_TYPE":0,"CLASSIFICATION_TYPE":"U","NORAD_CAT_ID":67916,"ELEMENT_SET_NO":999,"REV_AT_EPOCH":318,"BSTAR":-0.00011842,"MEAN_MOTION_DOT":-0.00025407,"MEAN_MOTION_DDOT":0},{"OBJECT_NAME":"STARLINK-36722","OBJECT_ID":"2026-036P","EPOCH":"2026-03-06T20:00:00.999360","MEAN_MOTION":15.82103554,"ECCENTRICITY":0.0001665,"INCLINATION":42.999,"RA_OF_ASC_NODE":267.1767,"ARG_OF_PERICENTER":273.8358,"MEAN_ANOMALY":287.8359,"EPHEMERIS_TYPE":0,"CLASSIFICATION_TYPE":"U","NORAD_CAT_ID":67917,"ELEMENT_SET_NO":999,"REV_AT_EPOCH":318,"BSTAR":-0.00091409,"MEAN_MOTION_DOT":-0.00189637,"MEAN_MOTION_DDOT":0},{"OBJECT_NAME":"STARLINK-36341","OBJECT_ID":"2026-036Q","EPOCH":"2026-03-06T20:00:00.999360","MEAN_MOTION":15.82081568,"ECCENTRICITY":0.0001825,"INCLINATION":42.9979,"RA_OF_ASC_NODE":267.1546,"ARG_OF_PERICENTER":251.6426,"MEAN_ANOMALY":318.5794,"EPHEMERIS_TYPE":0,"CLASSIFICATION_TYPE":"U","NORAD_CAT_ID":67918,"ELEMENT_SET_NO":999,"REV_AT_EPOCH":318,"BSTAR":-0.00061854,"MEAN_MOTION_DOT":-0.00129255,"MEAN_MOTION_DDOT":0},{"OBJECT_NAME":"STARLINK-36663","OBJECT_ID":"2026-036R","EPOCH":"2026-03-06T20:00:00.999360","MEAN_MOTION":15.82045871,"ECCENTRICITY":0.0001999,"INCLINATION":42.9988,"RA_OF_ASC_NODE":267.1661,"ARG_OF_PERICENTER":277.879,"MEAN_ANOMALY":288.0697,"EPHEMERIS_TYPE":0,"CLASSIFICATION_TYPE":"U","NORAD_CAT_ID":67919,"ELEMENT_SET_NO":999,"REV_AT_EPOCH":318,"BSTAR":-0.00037903,"MEAN_MOTION_DOT":-0.00079731,"MEAN_MOTION_DDOT":0},{"OBJECT_NAME":"STARLINK-36375","OBJECT_ID":"2026-036S","EPOCH":"2026-03-06T20:00:00.999360","MEAN_MOTION":15.82062094,"ECCENTRICITY":0.0001734,"INCLINATION":42.9986,"RA_OF_ASC_NODE":267.1446,"ARG_OF_PERICENTER":262.6726,"MEAN_ANOMALY":311.8272,"EPHEMERIS_TYPE":0,"CLASSIFICATION_TYPE":"U","NORAD_CAT_ID":67920,"ELEMENT_SET_NO":999,"REV_AT_EPOCH":318,"BSTAR":-0.00049269,"MEAN_MOTION_DOT":-0.00103274,"MEAN_MOTION_DDOT":0},{"OBJECT_NAME":"STARLINK-36405","OBJECT_ID":"2026-036T","EPOCH":"2026-03-06T20:00:00.999360","MEAN_MOTION":15.82031785,"ECCENTRICITY":0.0001852,"INCLINATION":42.9985,"RA_OF_ASC_NODE":267.134,"ARG_OF_PERICENTER":270.0386,"MEAN_ANOMALY":308.7367,"EPHEMERIS_TYPE":0,"CLASSIFICATION_TYPE":"U","NORAD_CAT_ID":67921,"ELEMENT_SET_NO":999,"REV_AT_EPOCH":318,"BSTAR":-0.00022228,"MEAN_MOTION_DOT":-0.0004712,"MEAN_MOTION_DDOT":0},{"OBJECT_NAME":"STARLINK-36383","OBJECT_ID":"2026-036U","EPOCH":"2026-03-06T20:00:00.999360","MEAN_MOTION":15.81966021,"ECCENTRICITY":0.0001788,"INCLINATION":42.9977,"RA_OF_ASC_NODE":267.1229,"ARG_OF_PERICENTER":283.4093,"MEAN_ANOMALY":299.6237,"EPHEMERIS_TYPE":0,"CLASSIFICATION_TYPE":"U","NORAD_CAT_ID":67922,"ELEMENT_SET_NO":999,"REV_AT_EPOCH":318,"BSTAR":0.0010686,"MEAN_MOTION_DOT":0.00230011,"MEAN_MOTION_DDOT":0},{"OBJECT_NAME":"STARLINK-36406","OBJECT_ID":"2026-036V","EPOCH":"2026-03-06T20:00:00.999360","MEAN_MOTION":15.8204805,"ECCENTRICITY":0.0001663,"INCLINATION":42.9979,"RA_OF_ASC_NODE":267.1123,"ARG_OF_PERICENTER":285.7367,"MEAN_ANOMALY":301.5744,"EPHEMERIS_TYPE":0,"CLASSIFICATION_TYPE":"U","NORAD_CAT_ID":67923,"ELEMENT_SET_NO":999,"REV_AT_EPOCH":318,"BSTAR":-0.00019401,"MEAN_MOTION_DOT":-0.00041253,"MEAN_MOTION_DDOT":0},{"OBJECT_NAME":"STARLINK-36714","OBJECT_ID":"2026-036W","EPOCH":"2026-03-06T20:00:00.999360","MEAN_MOTION":15.82042017,"ECCENTRICITY":0.0001876,"INCLINATION":42.998,"RA_OF_ASC_NODE":267.1012,"ARG_OF_PERICENTER":279.2343,"MEAN_ANOMALY":312.3487,"EPHEMERIS_TYPE":0,"CLASSIFICATION_TYPE":"U","NORAD_CAT_ID":67924,"ELEMENT_SET_NO":999,"REV_AT_EPOCH":318,"BSTAR":-0.00012787,"MEAN_MOTION_DOT":-0.00027408,"MEAN_MOTION_DDOT":0},{"OBJECT_NAME":"STARLINK-36726","OBJECT_ID":"2026-036X","EPOCH":"2026-03-06T20:00:00.999360","MEAN_MOTION":15.82022358,"ECCENTRICITY":0.0001617,"INCLINATION":42.9986,"RA_OF_ASC_NODE":267.0905,"ARG_OF_PERICENTER":276.0207,"MEAN_ANOMALY":319.8544,"EPHEMERIS_TYPE":0,"CLASSIFICATION_TYPE":"U","NORAD_CAT_ID":67925,"ELEMENT_SET_NO":999,"REV_AT_EPOCH":318,"BSTAR":-0.00017757,"MEAN_MOTION_DOT":-0.00037771,"MEAN_MOTION_DDOT":0},{"OBJECT_NAME":"STARLINK-36758","OBJECT_ID":"2026-036Y","EPOCH":"2026-03-06T20:00:00.999360","MEAN_MOTION":15.82036805,"ECCENTRICITY":0.0001702,"INCLINATION":42.9985,"RA_OF_ASC_NODE":267.0797,"ARG_OF_PERICENTER":302.168,"MEAN_ANOMALY":297.9631,"EPHEMERIS_TYPE":0,"CLASSIFICATION_TYPE":"U","NORAD_CAT_ID":67926,"ELEMENT_SET_NO":999,"REV_AT_EPOCH":318,"BSTAR":-0.00018274,"MEAN_MOTION_DOT":-0.00038877,"MEAN_MOTION_DDOT":0},{"OBJECT_NAME":"STARLINK-36728","OBJECT_ID":"2026-036Z","EPOCH":"2026-03-06T20:00:00.999360","MEAN_MOTION":15.82033131,"ECCENTRICITY":0.0001877,"INCLINATION":42.9989,"RA_OF_ASC_NODE":267.058,"ARG_OF_PERICENTER":274.9907,"MEAN_ANOMALY":333.7028,"EPHEMERIS_TYPE":0,"CLASSIFICATION_TYPE":"U","NORAD_CAT_ID":67927,"ELEMENT_SET_NO":999,"REV_AT_EPOCH":318,"BSTAR":-0.00032104,"MEAN_MOTION_DOT":-0.00067664,"MEAN_MOTION_DDOT":0},{"OBJECT_NAME":"STARLINK-36771","OBJECT_ID":"2026-036AA","EPOCH":"2026-03-06T20:00:00.999360","MEAN_MOTION":15.8204469,"ECCENTRICITY":0.0001804,"INCLINATION":42.9988,"RA_OF_ASC_NODE":267.0684,"ARG_OF_PERICENTER":266.1695,"MEAN_ANOMALY":338.248,"EPHEMERIS_TYPE":0,"CLASSIFICATION_TYPE":"U","NORAD_CAT_ID":67928,"ELEMENT_SET_NO":999,"REV_AT_EPOCH":318,"BSTAR":-0.00034632,"MEAN_MOTION_DOT":-0.00072945,"MEAN_MOTION_DDOT":0}]
