STARLINK-36690          
1 67913U 26036K   26065.83334490 -.00035890  00000+0 -16847-3 0  9991
2 67913  42.9989 267.2199 0002052 301.7089 242.8755 15.82032278  3185
STARLINK-36724          
1 67914U 26036L   26065.83334490 -.00047971  00000+0 -22633-3 0  9995
2 67914  42.9991 267.1978 0001904 289.9849 263.1487 15.82034838  3181
STARLINK-36723          
1 67915U 26036M   26065.83334490 -.00027668  00000+0 -12922-3 0  9997
2 67915  42.9990 267.2091 0001826 289.6942 259.1671 15.82024514  3182
STARLINK-36721          
1 67916U 26036N   26065.83334490 -.00025407  00000+0 -11842-3 0  9997
2 67916  42.9988 267.1878 0002059 288.6317 268.7761 15.82023258  3186
STARLINK-36722          
1 67917U 26036P   26065.83334490 -.00189637  00000+0 -91409-3 0  9991
2 67917  42.9990 267.1767 0001665 273.8358 287.8359 15.82103554  3183
STARLINK-36341          
1 67918U 26036Q   26065.83334490 -.00129255  00000+0 -61854-3 0  9993
2 67918  42.9979 267.1546 0001825 251.6426 318.5794 15.82081568  3189
STARLINK-36663          
1 67919U 26036R   26065.83334490 -.00079731  00000+0 -37903-3 0  9995
2 67919  42.9988 267.1661 0001999 277.8790 288.0697 15.82045871  3184
STARLINK-36375          
1 67920U 26036S   26065.83334490 -.00103274  00000+0 -49269-3 0  9995
2 67920  42.9986 267.1446 0001734 262.6726 311.8272 15.82062094  3183
STARLINK-36405          
1 67921U 26036T   26065.83334490 -.00047120  00000+0 -22228-3 0  9999
2 67921  42.9985 267.1340 0001852 270.0386 308.7367 15.82031785  3185
STARLINK-36383          
1 67922U 26036U   26065.83334490  .00230011  00000+0  10686-2 0  9995
2 67922  42.9977 267.1229 0001788 283.4093 299.6237 15.81966021  3187
STARLINK-36406          
1 67923U 26036V   26065.83334490 -.00041253  00000+0 -19401-3 0  9991
2 67923  42.9979 267.1123 0001663 285.7367 301.5744 15.82048050  3184
STARLINK-36714          
1 67924U 26036W   26065.83334490 -.00027408  00000+0 -12787-3 0  9998
2 67924  42.9980 267.1012 0001876 279.2343 312.3487 15.82042017  3183
STARLINK-36726          
1 67925U 26036X   26065.83334490 -.00037771  00000+0 -17757-3 0  9995
2 67925  42.9986 267.0905 0001617 276.0207 319.8544 15.82022358  3189
STARLINK-36758          
1 67926U 26036Y   26065.83334490 -.00038877  00000+0 -18274-3 0  9999
2 67926  42.9985 267.0797 0001702 302.1680 297.9631 15.82036805  3184
STARLINK-36728          
1 67927U 26036Z   26065.83334490 -.00067664  00000+0 -32104-3 0  9994
2 67927  42.9989 267.0580 0001877 274.9907 333.7028 15.82033131  3188
STARLINK-36771          
1 67928U 26036AA  26065.83334490 -.00072945  00000+0 -34632-3 0  9991
2 67928  42.9988 267.0684 0001804 266.1695 338.2480 15.82044690  3184
